CCSDS_OMM_VERS = 2.0
CREATION_DATE  = 
ORIGINATOR     = 

OBJECT_NAME    = 1998-067XK
OBJECT_ID      = 1998-067XK
CENTER_NAME    = EARTH
REF_FRAME      = TEME
TIME_SYSTEM    = UTC
MEAN_ELEMENT_THEORY = SGP/SGP4

EPOCH          = 2026-01-31T22:54:23.726592
MEAN_MOTION    = 15.80596168
ECCENTRICITY   = .00038124
INCLINATION    = 51.6232
RA_OF_ASC_NODE = 240.0713
ARG_OF_PERICENTER = 195.4345
MEAN_ANOMALY   = 164.6541

EPHEMERIS_TYPE = 0
CLASSIFICATION_TYPE = U
NORAD_CAT_ID   = 65731
ELEMENT_SET_NO = 999
REV_AT_EPOCH   = 2104
BSTAR          = .91194351E-3
MEAN_MOTION_DOT = .181172E-2
MEAN_MOTION_DDOT = 0

CCSDS_OMM_VERS = 2.0
CREATION_DATE  = 
ORIGINATOR     = 

OBJECT_NAME    = RSP-03
OBJECT_ID      = 1998-067XL
CENTER_NAME    = EARTH
REF_FRAME      = TEME
TIME_SYSTEM    = UTC
MEAN_ELEMENT_THEORY = SGP/SGP4

EPOCH          = 2026-01-31T23:10:16.839552
MEAN_MOTION    = 15.92427913
ECCENTRICITY   = .00053883
INCLINATION    = 51.6172
RA_OF_ASC_NODE = 237.0865
ARG_OF_PERICENTER = 221.5791
MEAN_ANOMALY   = 138.4806

EPHEMERIS_TYPE = 0
CLASSIFICATION_TYPE = U
NORAD_CAT_ID   = 65732
ELEMENT_SET_NO = 999
REV_AT_EPOCH   = 2109
BSTAR          = .1152285E-2
MEAN_MOTION_DOT = .398333E-2
MEAN_MOTION_DDOT = .72060505E-4

CCSDS_OMM_VERS = 2.0
CREATION_DATE  = 
ORIGINATOR     = 

OBJECT_NAME    = YOTSUBA-KULOVER
OBJECT_ID      = 1998-067XN
CENTER_NAME    = EARTH
REF_FRAME      = TEME
TIME_SYSTEM    = UTC
MEAN_ELEMENT_THEORY = SGP/SGP4

EPOCH          = 2026-01-31T21:11:41.118720
MEAN_MOTION    = 15.68886600
ECCENTRICITY   = .00043411
INCLINATION    = 51.6248
RA_OF_ASC_NODE = 246.3754
ARG_OF_PERICENTER = 198.7891
MEAN_ANOMALY   = 161.2946

EPHEMERIS_TYPE = 0
CLASSIFICATION_TYPE = U
NORAD_CAT_ID   = 65941
ELEMENT_SET_NO = 999
REV_AT_EPOCH   = 1770
BSTAR          = .83994849E-3
MEAN_MOTION_DOT = .99148E-3
MEAN_MOTION_DDOT = 0

CCSDS_OMM_VERS = 2.0
CREATION_DATE  = 
ORIGINATOR     = 

OBJECT_NAME    = BOTAN
OBJECT_ID      = 1998-067XP
CENTER_NAME    = EARTH
REF_FRAME      = TEME
TIME_SYSTEM    = UTC
MEAN_ELEMENT_THEORY = SGP/SGP4

EPOCH          = 2026-01-31T19:37:35.909472
MEAN_MOTION    = 15.79643607
ECCENTRICITY   = .00054135
INCLINATION    = 51.6186
RA_OF_ASC_NODE = 243.6587
ARG_OF_PERICENTER = 214.9689
MEAN_ANOMALY   = 145.0958

EPHEMERIS_TYPE = 0
CLASSIFICATION_TYPE = U
NORAD_CAT_ID   = 65942
ELEMENT_SET_NO = 999
REV_AT_EPOCH   = 1773
BSTAR          = .11205079E-2
MEAN_MOTION_DOT = .214162E-2
MEAN_MOTION_DDOT = 0

CCSDS_OMM_VERS = 2.0
CREATION_DATE  = 
ORIGINATOR     = 

OBJECT_NAME    = E-KAGAKU-1
OBJECT_ID      = 1998-067XQ
CENTER_NAME    = EARTH
REF_FRAME      = TEME
TIME_SYSTEM    = UTC
MEAN_ELEMENT_THEORY = SGP/SGP4

EPOCH          = 2026-01-31T21:12:12.553632
MEAN_MOTION    = 15.68815577
ECCENTRICITY   = .00032841
INCLINATION    = 51.6263
RA_OF_ASC_NODE = 246.3872
ARG_OF_PERICENTER = 210.1365
MEAN_ANOMALY   = 149.9444

EPHEMERIS_TYPE = 0
CLASSIFICATION_TYPE = U
NORAD_CAT_ID   = 65943
ELEMENT_SET_NO = 999
REV_AT_EPOCH   = 1770
BSTAR          = .8348729E-3
MEAN_MOTION_DOT = .98228E-3
MEAN_MOTION_DDOT = 0

CCSDS_OMM_VERS = 2.0
CREATION_DATE  = 
ORIGINATOR     = 

OBJECT_NAME    = HRC MONOBLOCK CAMERA
OBJECT_ID      = 1998-067XR
CENTER_NAME    = EARTH
REF_FRAME      = TEME
TIME_SYSTEM    = UTC
MEAN_ELEMENT_THEORY = SGP/SGP4

EPOCH          = 2026-01-31T19:22:44.485248
MEAN_MOTION    = 15.58422936
ECCENTRICITY   = .00003151
INCLINATION    = 51.6280
RA_OF_ASC_NODE = 251.1287
ARG_OF_PERICENTER = 20.3488
MEAN_ANOMALY   = 339.7517

EPHEMERIS_TYPE = 0
CLASSIFICATION_TYPE = U
NORAD_CAT_ID   = 66052
ELEMENT_SET_NO = 999
REV_AT_EPOCH   = 1663
BSTAR          = .47390077E-3
MEAN_MOTION_DOT = .36453E-3
MEAN_MOTION_DDOT = 0

CCSDS_OMM_VERS = 2.0
CREATION_DATE  = 
ORIGINATOR     = 

OBJECT_NAME    = HTV-X1
OBJECT_ID      = 2025-241A
CENTER_NAME    = EARTH
REF_FRAME      = TEME
TIME_SYSTEM    = UTC
MEAN_ELEMENT_THEORY = SGP/SGP4

EPOCH          = 2026-01-31T20:31:22.831968
MEAN_MOTION    = 15.48310634
ECCENTRICITY   = .00111079
INCLINATION    = 51.6318
RA_OF_ASC_NODE = 254.4422
ARG_OF_PERICENTER = 50.9406
MEAN_ANOMALY   = 309.2569

EPHEMERIS_TYPE = 0
CLASSIFICATION_TYPE = U
NORAD_CAT_ID   = 66174
ELEMENT_SET_NO = 999
REV_AT_EPOCH   = 51
BSTAR          = .13028103E-3
MEAN_MOTION_DOT = .6574E-4
MEAN_MOTION_DDOT = 0

CCSDS_OMM_VERS = 2.0
CREATION_DATE  = 
ORIGINATOR     = 

OBJECT_NAME    = SZ-21 MODULE
OBJECT_ID      = 2025-246C
CENTER_NAME    = EARTH
REF_FRAME      = TEME
TIME_SYSTEM    = UTC
MEAN_ELEMENT_THEORY = SGP/SGP4

EPOCH          = 2026-01-31T19:01:32.569248
MEAN_MOTION    = 15.65768813
ECCENTRICITY   = .00033542
INCLINATION    = 41.4759
RA_OF_ASC_NODE = 70.0056
ARG_OF_PERICENTER = 262.5729
MEAN_ANOMALY   = 97.4731

EPHEMERIS_TYPE = 0
CLASSIFICATION_TYPE = U
NORAD_CAT_ID   = 66515
ELEMENT_SET_NO = 999
REV_AT_EPOCH   = 1228
BSTAR          = .28367575E-3
MEAN_MOTION_DOT = .29338E-3
MEAN_MOTION_DDOT = 0

CCSDS_OMM_VERS = 2.0
CREATION_DATE  = 
ORIGINATOR     = 

OBJECT_NAME    = SHENZHOU-22
OBJECT_ID      = 2025-272A
CENTER_NAME    = EARTH
REF_FRAME      = TEME
TIME_SYSTEM    = UTC
MEAN_ELEMENT_THEORY = SGP/SGP4

EPOCH          = 2026-01-31T09:16:26.859072
MEAN_MOTION    = 15.61427822
ECCENTRICITY   = .00089098
INCLINATION    = 41.4674
RA_OF_ASC_NODE = 74.8264
ARG_OF_PERICENTER = 46.9753
MEAN_ANOMALY   = 313.1831

EPHEMERIS_TYPE = 0
CLASSIFICATION_TYPE = U
NORAD_CAT_ID   = 66645
ELEMENT_SET_NO = 999
REV_AT_EPOCH   = 26764
BSTAR          = .32370793E-3
MEAN_MOTION_DOT = .28253E-3
MEAN_MOTION_DDOT = 0

CCSDS_OMM_VERS = 2.0
CREATION_DATE  = 
ORIGINATOR     = 

OBJECT_NAME    = SOYUZ-MS 28
OBJECT_ID      = 2025-275A
CENTER_NAME    = EARTH
REF_FRAME      = TEME
TIME_SYSTEM    = UTC
MEAN_ELEMENT_THEORY = SGP/SGP4

EPOCH          = 2026-01-31T20:31:22.831968
MEAN_MOTION    = 15.48310634
ECCENTRICITY   = .00111079
INCLINATION    = 51.6318
RA_OF_ASC_NODE = 254.4422
ARG_OF_PERICENTER = 50.9406
MEAN_ANOMALY   = 309.2569

EPHEMERIS_TYPE = 0
CLASSIFICATION_TYPE = U
NORAD_CAT_ID   = 66664
ELEMENT_SET_NO = 999
REV_AT_EPOCH   = 128
BSTAR          = .13028103E-3
MEAN_MOTION_DOT = .6574E-4
MEAN_MOTION_DDOT = 0

CCSDS_OMM_VERS = 2.0
CREATION_DATE  = 
ORIGINATOR     = 

OBJECT_NAME    = DUPLEX
OBJECT_ID      = 1998-067XS
CENTER_NAME    = EARTH
REF_FRAME      = TEME
TIME_SYSTEM    = UTC
MEAN_ELEMENT_THEORY = SGP/SGP4

EPOCH          = 2026-01-31T21:18:59.125248
MEAN_MOTION    = 15.53624870
ECCENTRICITY   = .0001575
INCLINATION    = 51.6293
RA_OF_ASC_NODE = 253.1664
ARG_OF_PERICENTER = 81.4711
MEAN_ANOMALY   = 278.6458

EPHEMERIS_TYPE = 0
CLASSIFICATION_TYPE = U
NORAD_CAT_ID   = 66906
ELEMENT_SET_NO = 999
REV_AT_EPOCH   = 940
BSTAR          = .40951836E-3
MEAN_MOTION_DOT = .26228E-3
MEAN_MOTION_DDOT = 0

CCSDS_OMM_VERS = 2.0
CREATION_DATE  = 
ORIGINATOR     = 

OBJECT_NAME    = 1998-067XT
OBJECT_ID      = 1998-067XT
CENTER_NAME    = EARTH
REF_FRAME      = TEME
TIME_SYSTEM    = UTC
MEAN_ELEMENT_THEORY = SGP/SGP4

EPOCH          = 2026-01-31T20:18:51.156288
MEAN_MOTION    = 15.59907385
ECCENTRICITY   = .00027892
INCLINATION    = 51.6268
RA_OF_ASC_NODE = 252.1368
ARG_OF_PERICENTER = 161.7115
MEAN_ANOMALY   = 198.3979

EPHEMERIS_TYPE = 0
CLASSIFICATION_TYPE = U
NORAD_CAT_ID   = 66907
ELEMENT_SET_NO = 999
REV_AT_EPOCH   = 941
BSTAR          = .95076906E-3
MEAN_MOTION_DOT = .78348E-3
MEAN_MOTION_DDOT = 0

